[{"OBJECT_NAME":"FLOCK 4G-6","OBJECT_ID":"2025-009BD","EPOCH":"2026-03-09T17:03:16.973568","MEAN_MOTION":15.27432125,"ECCENTRICITY":0.00023795,"INCLINATION":97.398,"RA_OF_ASC_NODE":150.7943,"ARG_OF_PERICENTER":348.2637,"MEAN_ANOMALY":11.8546,"EPHEMERIS_TYPE":0,"CLASSIFICATION_TYPE":"U","NORAD_CAT_ID":62660,"ELEMENT_SET_NO":999,"REV_AT_EPOCH":12130,"BSTAR":0.00045909501,"MEAN_MOTION_DOT":0.00012261,"MEAN_MOTION_DDOT":0},{"OBJECT_NAME":"STARLINK-36078","OBJECT_ID":"2025-294W","EPOCH":"2026-03-09T07:24:28.984320","MEAN_MOTION":15.27585363,"ECCENTRICITY":0.00013662,"INCLINATION":43.0053,"RA_OF_ASC_NODE":39.9878,"ARG_OF_PERICENTER":280.7022,"MEAN_ANOMALY":79.3676,"EPHEMERIS_TYPE":0,"CLASSIFICATION_TYPE":"U","NORAD_CAT_ID":67050,"ELEMENT_SET_NO":999,"REV_AT_EPOCH":1474,"BSTAR":0.00047667158,"MEAN_MOTION_DOT":0.0001288,"MEAN_MOTION_DDOT":0}]
